{
    "links": {
        "self": "http://www.neowsapp.com/rest/v1/neo/54065897?api_key=iIulBulltgU6a56xZRHN4H3l9WmuAYTsLGpBGhQ2"
    },
    "id": "54065897",
    "neo_reference_id": "54065897",
    "name": "(2020 TL5)",
    "designation": "2020 TL5",
    "nasa_jpl_url": "http://ssd.jpl.nasa.gov/sbdb.cgi?sstr=54065897",
    "absolute_magnitude_h": 25.854,
    "estimated_diameter": {
        "kilometers": {
            "estimated_diameter_min": 0.0179372135,
            "estimated_diameter_max": 0.0401088286
        },
        "meters": {
            "estimated_diameter_min": 17.9372134665,
            "estimated_diameter_max": 40.1088286381
        },
        "miles": {
            "estimated_diameter_min": 0.0111456643,
            "estimated_diameter_max": 0.024922463
        },
        "feet": {
            "estimated_diameter_min": 58.8491274296,
            "estimated_diameter_max": 131.5906493491
        }
    },
    "is_potentially_hazardous_asteroid": false,
    "close_approach_data": [
        {
            "close_approach_date": "2016-10-10",
            "close_approach_date_full": "2016-Oct-10 21:07",
            "epoch_date_close_approach": 1476133620000,
            "relative_velocity": {
                "kilometers_per_second": "11.4112290229",
                "kilometers_per_hour": "41080.424482516",
                "miles_per_hour": "25525.7782013722"
            },
            "miss_distance": {
                "astronomical": "0.1392683463",
                "lunar": "54.1753867107",
                "kilometers": "20834247.964902381",
                "miles": "12945801.3806036178"
            },
            "orbiting_body": "Earth"
        },
        {
            "close_approach_date": "2020-10-13",
            "close_approach_date_full": "2020-Oct-13 04:56",
            "epoch_date_close_approach": 1602564960000,
            "relative_velocity": {
                "kilometers_per_second": "10.7449505416",
                "kilometers_per_hour": "38681.8219496779",
                "miles_per_hour": "24035.379866454"
            },
            "miss_distance": {
                "astronomical": "0.0616217328",
                "lunar": "23.9708540592",
                "kilometers": "9218479.972589136",
                "miles": "5728097.8395406368"
            },
            "orbiting_body": "Earth"
        },
        {
            "close_approach_date": "2024-10-15",
            "close_approach_date_full": "2024-Oct-15 03:22",
            "epoch_date_close_approach": 1728962520000,
            "relative_velocity": {
                "kilometers_per_second": "11.0462486639",
                "kilometers_per_hour": "39766.4951899468",
                "miles_per_hour": "24709.35363622"
            },
            "miss_distance": {
                "astronomical": "0.134164332",
                "lunar": "52.189925148",
                "kilometers": "20070698.29717284",
                "miles": "12471353.617511592"
            },
            "orbiting_body": "Earth"
        }
    ],
    "orbital_data": {
        "orbit_id": "3",
        "orbit_determination_date": "2020-10-19 08:22:15",
        "first_observation_date": "2020-10-14",
        "last_observation_date": "2020-10-19",
        "data_arc_in_days": 5,
        "observations_used": 29,
        "orbit_uncertainty": "8",
        "minimum_orbit_intersection": ".0615701",
        "jupiter_tisserand_invariant": "5.180",
        "epoch_osculation": "2459137.5",
        "eccentricity": ".1323409174247666",
        "semi_major_axis": "1.215354156216767",
        "inclination": "20.33346822289403",
        "ascending_node_longitude": "19.65282727756879",
        "orbital_period": "489.3873087536033",
        "perihelion_distance": "1.054513072187037",
        "perihelion_argument": "16.28120568096837",
        "aphelion_distance": "1.376195240246497",
        "perihelion_time": "2459151.936697986215",
        "mean_anomaly": "349.3801674418694",
        "mean_motion": ".7356136817623377",
        "equinox": "J2000",
        "orbit_class": {
            "orbit_class_type": "AMO",
            "orbit_class_description": "Near-Earth asteroid orbits similar to that of 1221 Amor",
            "orbit_class_range": "1.017 AU < q (perihelion) < 1.3 AU"
        }
    },
    "is_sentry_object": false
}